      2.10          N: GNSS NAV DATA                        RINEX VERSION / TYPE
fic2rin                                 12/06/2018 00:18:53 PGM / RUN BY / DATE
                                                            END OF HEADER
 6 18 12  5  8  0  0.0 3.219367936254e-04-6.707523425575e-12 0.000000000000e+00
    9.600000000000e+01-1.281250000000e+01 4.054454598594e-09 1.607204660994e+00
   -6.891787052155e-07 1.174900215119e-03 1.102685928345e-05 5.153755523682e+03
    2.880000000000e+05 1.303851604462e-08 1.436810609158e-01-3.911554813385e-08
    9.735661973742e-01 1.721875000000e+02-1.228993348575e+00-7.657104663430e-09
    4.039453973758e-10 1.000000000000e+00 2.030000000000e+03 0.000000000000e+00
    2.400000000000e+00 0.000000000000e+00 4.656612873077e-09 9.600000000000e+01
    2.808060000000e+05 4.000000000000e+00
 4 18 12  5  8  0  0.0-8.313590660691e-05-1.909938873723e-11 0.000000000000e+00
    7.600000000000e+01-1.343750000000e+02 4.546260798582e-09-2.651428144110e+00
   -7.051974534988e-06 1.375404372811e-02 6.979331374168e-06 5.153675897598e+03
    2.880000000000e+05 3.539025783539e-08-1.001394648701e+00-2.793967723846e-07
    9.588294569927e-01 2.434062500000e+02 5.808389574283e-01-8.065693111350e-09
   -2.382242087088e-10 1.000000000000e+00 2.030000000000e+03 0.000000000000e+00
    2.400000000000e+00 6.300000000000e+01-5.587935447693e-09 7.600000000000e+01
    2.808060000000e+05 4.000000000000e+00
 9 18 12  5  8  0  0.0 4.862695932388e-04-3.751665644813e-12 0.000000000000e+00
    3.200000000000e+01-3.071875000000e+01 4.653408118841e-09-2.385024898500e+00
   -1.573935151100e-06 1.417736173607e-03 9.803101420403e-06 5.153777227402e+03
    2.880000000000e+05 3.539025783539e-08 2.227742346502e+00-5.587935447693e-08
    9.523977976368e-01 1.875625000000e+02 1.672401268534e+00-7.994261564511e-09
   -6.575273886550e-10 1.000000000000e+00 2.030000000000e+03 0.000000000000e+00
    2.400000000000e+00 0.000000000000e+00 1.396983861923e-09 3.200000000000e+01
    2.808060000000e+05 4.000000000000e+00
16 18 12  5  8  0  0.0-4.862900823355e-06-2.160049916711e-12 0.000000000000e+00
    6.900000000000e+01 4.937500000000e+00 4.354824253053e-09-1.885610445781e+00
   -3.725290298462e-09 1.022373663727e-02 8.791685104370e-07 5.153734174728e+03
    2.880000000000e+05 4.097819328308e-08-1.863428084356e+00-1.136213541031e-07
    9.848886551943e-01 3.724687500000e+02 5.202029004474e-01-8.233200088688e-09
    1.778645516296e-10 1.000000000000e+00 2.030000000000e+03 0.000000000000e+00
    2.400000000000e+00 0.000000000000e+00-1.071020960808e-08 6.900000000000e+01
    2.808060000000e+05 4.000000000000e+00
22 18 12  5  8  0  0.0-5.909642204642e-04-9.436007530894e-12 0.000000000000e+00
    4.000000000000e+01 1.340625000000e+01 5.798098656939e-09 2.680618458061e+00
    6.407499313354e-07 6.991474889219e-03 4.373490810394e-06 5.153631650925e+03
    2.880000000000e+05 9.872019290924e-08 1.127751542601e+00-2.048909664154e-08
    9.258395541908e-01 2.730000000000e+02-1.453153152290e+00-8.554642049465e-09
    9.464679956196e-11 1.000000000000e+00 2.030000000000e+03 0.000000000000e+00
    2.400000000000e+00 0.000000000000e+00-1.816079020500e-08 4.000000000000e+01
    2.808060000000e+05 4.000000000000e+00
14 18 12  5  8  0  0.0-9.503308683634e-05 4.547473508865e-13 0.000000000000e+00
    5.700000000000e+01-7.281250000000e+00 4.210532528438e-09-3.080853027861e+00
   -3.501772880554e-07 9.993817773648e-03 1.085735857487e-05 5.153654113770e+03
    2.880000000000e+05 1.080334186554e-07 2.319121739563e+00-8.940696716309e-08
    9.606301774856e-01 1.669375000000e+02-1.946629815094e+00-7.610317000250e-09
   -5.553802766749e-10 1.000000000000e+00 2.030000000000e+03 0.000000000000e+00
    2.400000000000e+00 0.000000000000e+00-9.778887033463e-09 5.700000000000e+01
    2.808060000000e+05 4.000000000000e+00
30 18 12  5  8  0  0.0-1.499662175775e-05-5.798028723802e-12 0.000000000000e+00
    3.000000000000e+01 1.123437500000e+02 4.672694636487e-09 6.188924234679e-01
    5.919486284256e-06 3.560323617421e-03 9.356066584587e-06 5.153661169052e+03
    2.880000000000e+05 5.774199962616e-08-2.948244492526e+00 6.705522537231e-08
    9.428606148206e-01 1.887187500000e+02-2.991025122328e+00-8.162840015051e-09
    2.242950570751e-10 1.000000000000e+00 2.030000000000e+03 0.000000000000e+00
    2.400000000000e+00 0.000000000000e+00 3.725290298462e-09 3.000000000000e+01
    2.808060000000e+05 4.000000000000e+00
15 18 12  5  8  0  0.0-3.374111838639e-04 1.364242052659e-12 0.000000000000e+00
    3.000000000000e+01-3.375000000000e+01 5.192001982008e-09 2.551999604616e+00
   -1.888722181320e-06 1.110829261597e-02 8.882954716682e-06 5.153605405807e+03
    2.880000000000e+05-5.029141902924e-08 2.152159670135e+00-1.322478055954e-07
    9.278484406118e-01 1.917500000000e+02 7.413814907035e-01-8.194269895661e-09
   -5.814527912712e-10 1.000000000000e+00 2.030000000000e+03 0.000000000000e+00
    2.400000000000e+00 0.000000000000e+00-1.117587089539e-08 3.000000000000e+01
    2.808060000000e+05 4.000000000000e+00
13 18 12  5  8  0  0.0-8.253101259470e-05 1.136868377216e-12 0.000000000000e+00
    3.800000000000e+01-1.050000000000e+01 4.134815088788e-09 2.311339951649e+00
   -5.308538675308e-07 3.665457712486e-03 1.068040728569e-05 5.153670373917e+03
    2.880000000000e+05 6.891787052155e-08 2.362325151228e+00 1.117587089539e-08
    9.681114761746e-01 1.774062500000e+02 1.402237226272e+00-7.724250317459e-09
   -5.007351433429e-10 1.000000000000e+00 2.030000000000e+03 0.000000000000e+00
    2.400000000000e+00 0.000000000000e+00-1.117587089539e-08 3.800000000000e+01
    2.808060000000e+05 4.000000000000e+00
12 18 12  5  8  0  0.0 2.869372256100e-04-2.955857780762e-12 0.000000000000e+00
    3.000000000000e+01 1.471875000000e+01 4.380896767649e-09-1.096610853101e-02
    6.910413503647e-07 7.134156650864e-03 1.385807991028e-06 5.153734022141e+03
    2.880000000000e+05-9.313225746155e-09-1.882347545982e+00 7.823109626770e-08
    9.845080068359e-01 3.700000000000e+02 1.021185090789e+00-8.379277601974e-09
    7.000291590243e-11 1.000000000000e+00 2.030000000000e+03 0.000000000000e+00
    2.400000000000e+00 0.000000000000e+00-1.257285475731e-08 3.000000000000e+01
    2.808060000000e+05 4.000000000000e+00
11 18 12  5  8  0  0.0-6.923219189048e-04 4.433786671143e-12 0.000000000000e+00
    1.040000000000e+02-8.012500000000e+01 5.645592304437e-09 5.975155227942e-01
   -4.198402166367e-06 1.670082390774e-02 1.146085560322e-05 5.153678329468e+03
    2.880000000000e+05-1.862645149231e-07-2.873385498325e-01-1.490116119385e-07
    9.079636768802e-01 1.350000000000e+02 1.846125666544e+00-8.759650588893e-09
    1.821504444400e-10 1.000000000000e+00 2.030000000000e+03 0.000000000000e+00
    2.400000000000e+00 0.000000000000e+00-1.210719347000e-08 1.040000000000e+02
    2.808060000000e+05 4.000000000000e+00
27 18 12  5  8  0  0.0-2.765096724033e-05-5.684341886081e-12 0.000000000000e+00
    6.600000000000e+01-1.321250000000e+02 4.102313734976e-09-2.822476560666e+00
   -6.835907697678e-06 6.249203928746e-03 8.186325430870e-06 5.153703626633e+03
    2.880000000000e+05-4.284083843231e-08-9.034337539736e-01-1.192092895508e-07
    9.782202664349e-01 2.317812500000e+02 4.313723992948e-01-7.848541208959e-09
   -2.600108304947e-10 1.000000000000e+00 2.030000000000e+03 0.000000000000e+00
    2.400000000000e+00 0.000000000000e+00 1.862645149231e-09 6.600000000000e+01
    2.808060000000e+05 4.000000000000e+00
21 18 12  5  8  0  0.0-2.927980385721e-04 6.593836587854e-12 0.000000000000e+00
    3.700000000000e+01-5.625000000000e-01 4.887346434739e-09-4.755568920991e-01
    1.862645149231e-09 2.452221827116e-02 1.133047044277e-05 5.153578567505e+03
    2.880000000000e+05-3.352761268616e-07 9.247343195819e-02 1.136213541031e-07
    9.466444641360e-01 1.594375000000e+02-1.507200975256e+00-8.559285100009e-09
    5.639520622956e-10 1.000000000000e+00 2.030000000000e+03 0.000000000000e+00
    2.400000000000e+00 0.000000000000e+00-9.778887033463e-09 3.700000000000e+01
    2.808060000000e+05 4.000000000000e+00
31 18 12  5  8  0  0.0 7.500732317567e-05-2.614797267597e-12 0.000000000000e+00
    3.300000000000e+01 1.225000000000e+02 4.249462721465e-09 3.089645869181e-01
    6.461516022682e-06 9.122015675530e-03 8.987262845039e-06 5.153799854279e+03
    2.880000000000e+05 1.974403858185e-07-2.965669968081e+00-2.607703208923e-08
    9.619438676804e-01 2.042812500000e+02-6.415316366534e-02-8.082479524857e-09
    2.678683006471e-10 1.000000000000e+00 2.030000000000e+03 0.000000000000e+00
    2.400000000000e+00 0.000000000000e+00-1.350417733192e-08 3.300000000000e+01
    2.808060000000e+05 4.000000000000e+00
25 18 12  5  8  0  0.0-6.866860203445e-04-5.570655048359e-12 0.000000000000e+00
    9.700000000000e+01 1.796875000000e+01 4.711267671781e-09-3.157101007186e-01
    1.061707735062e-06 7.695432170294e-03 1.126900315285e-06 5.153551259995e+03
    2.880000000000e+05 4.284083843231e-08-1.944545780034e+00 7.078051567078e-08
    9.720645368354e-01 3.669062500000e+02 8.492462398861e-01-8.542498686502e-09
    1.125046862718e-10 1.000000000000e+00 2.030000000000e+03 0.000000000000e+00
    3.400000000000e+00 0.000000000000e+00 5.587935447693e-09 9.700000000000e+01
    2.808060000000e+05 4.000000000000e+00
24 18 12  5  8  0  0.0-5.911057814956e-05-5.684341886081e-13 0.000000000000e+00
    9.100000000000e+01 1.109687500000e+02 4.668408743677e-09 1.644047884165e+00
    5.757436156273e-06 7.779462262988e-03 9.851530194283e-06 5.153625120163e+03
    2.880000000000e+05-1.229345798492e-07-3.041960812369e+00 8.009374141693e-08
    9.404614715952e-01 1.784687500000e+02 5.551110487291e-01-8.190698318319e-09
    6.607418082628e-11 1.000000000000e+00 2.030000000000e+03 0.000000000000e+00
    3.400000000000e+00 0.000000000000e+00 2.793967723846e-09 9.100000000000e+01
    2.808060000000e+05 4.000000000000e+00
